STARLINK-37733          
1 69329U 26122A   26183.25003472 -.00035020  00000+0 -10873-2 0  9997
2 69329  97.2844 212.9420 0001137  82.7417  15.8999 15.33450092  5767
STARLINK-37772          
1 69330U 26122B   26183.25003472 -.00036206  00000+0 -11248-2 0  9993
2 69330  97.2838 212.9506 0000774  90.8176  22.8650 15.33438087  5712
STARLINK-37768          
1 69331U 26122C   26183.25003472 -.01634957  00000+0 -41546-1 0  9995
2 69331  97.2847 212.9464 0001449  68.0530  22.2648 15.42934177  5719
STARLINK-37833          
1 69332U 26122D   26183.25003472 -.00041423  00000+0 -12876-2 0  9990
2 69332  97.2843 212.9634 0001086  71.1601  72.4782 15.33449935  5715
STARLINK-37818          
1 69333U 26122E   26183.25003472 -.00033727  00000+0 -93509-3 0  9992
2 69333  97.2842 212.9567 0000680 125.1045   4.4041 15.36998410  5769
STARLINK-37868          
1 69334U 26122F   26183.25003472 -.00042976  00000+0 -13360-2 0  9995
2 69334  97.2839 212.9759 0001702  99.2875  74.3368 15.33454409  5767
STARLINK-37877          
1 69335U 26122G   26182.32958104  .00065664  00000+0  12005-2 0  9996
2 69335  97.2856 212.0107 0000986  47.8546 312.2788 15.49152259  4351
STARLINK-37791          
1 69336U 26122H   26183.25003472 -.02708356  00000+0 -83675-1 0  9995
2 69336  97.3059 212.9862 0001861  85.3660 114.1523 15.37087285  5767
STARLINK-37765          
1 69337U 26122J   26183.01465107  .00027161  00000+0  84012-3 0  9999
2 69337  97.2835 212.7638 0000846  90.1796 269.9543 15.33464470  4462
STARLINK-37788          
1 69338U 26122K   26183.04200813  .00033856  00000+0  62097-3 0  9991
2 69338  97.2831 212.7264 0000489 358.8265   1.2985 15.49214050  4463
STARLINK-37743          
1 69339U 26122L   26181.00941590  .00050231  00000+0  91719-3 0  9999
2 69339  97.2850 210.7434 0000977  99.1717 260.9645 15.49256981  4153
STARLINK-37780          
1 69340U 26122M   26183.25003472 -.00058257  00000+0 -16222-2 0  9991
2 69340  97.2841 213.0096 0001444  83.9437 167.5808 15.36993116  5816
STARLINK-37781          
1 69341U 26122N   26183.04318259  .00056736  00000+0  10375-2 0  9992
2 69341  97.2851 212.7242 0000395  62.2163 297.9128 15.49185248  4463
STARLINK-37782          
1 69342U 26122P   26183.25003472 -.00040776  00000+0 -12674-2 0  9997
2 69342  97.2842 213.0288 0001691  84.2336 209.4292 15.33447103  5773
STARLINK-37776          
1 69343U 26122Q   26183.25003472 -.00020758  00000+0 -64285-3 0  9992
2 69343  97.2841 213.0350 0001162  71.7666 236.9090 15.33423345  5776
STARLINK-37786          
1 69344U 26122R   26182.35962281  .00101101  00000+0  18402-2 0  9994
2 69344  97.2837 212.1255 0004585 131.1264 229.0384 15.49127849  4363
STARLINK-37785          
1 69345U 26122S   26183.25003472 -.00026938  00000+0 -83511-3 0  9993
2 69345  97.2839 213.0479 0001435  57.8655 280.7653 15.33441890  5770
STARLINK-37773          
1 69346U 26122T   26183.25003472 -.03922740  00000+0 -11224+0 0  9991
2 69346  97.2837 213.0446 0001940 106.1168 217.5357 15.40282623  5810
STARLINK-37744          
1 69347U 26122U   26183.23289159  .00045281  00000+0  82972-3 0  9991
2 69347  97.2836 212.9246 0002043 138.0023 222.1385 15.49178343  4493
STARLINK-37775          
1 69348U 26122V   26183.25003472 -.02395472  00000+0 -70445-1 0  9990
2 69348  97.2830 213.0427 0001948  91.0718 231.2155 15.38745521  5777
STARLINK-37777          
1 69349U 26122W   26183.25003472 -.02490835  00000+0 -63894-1 0  9990
2 69349  97.2843 213.0551 0001507 102.2469 248.0158 15.42998963  5773
STARLINK-37779          
1 69350U 26122X   26182.97577480  .00102606  00000+0  18346-2 0  9990
2 69350  97.2856 212.8149 0001020 163.0436 197.0850 15.49639968  4469
STARLINK-37549          
1 69351U 26122Y   26183.01630901  .00065465  00000+0  11932-2 0  9990
2 69351  97.2824 212.7613 0003812 123.7194 236.4421 15.49234272  4466
STARLINK-37778          
1 69352U 26122Z   26183.00835838  .00071856  00000+0  13090-2 0  9994
2 69352  97.2863 212.7721 0002061  87.0856 273.0631 15.49228118  4464
STARLINK-37651          
1 69353U 26123A   26181.51140785  .00250807  00000+0  12304-2 0  9992
2 69353  53.1561 175.0288 0002940 168.1568 191.9524 15.80998863  4147
STARLINK-37652          
1 69354U 26123B   26183.21949134  .00402745  00000+0  19487-2 0  9996
2 69354  53.1572 166.4840 0001500  48.9939 311.1213 15.80891186  4417
STARLINK-37593          
1 69355U 26123C   26183.28183869  .00281066  00000+0  13818-2 0  9992
2 69355  53.1567 166.1603 0000831  76.9780 283.1335 15.80871200  4426
STARLINK-37597          
1 69356U 26123D   26182.23245013  .00190946  00000+0  12181-2 0  9995
2 69356  53.1602 171.7155 0001131 101.5172 258.5975 15.75310661  4255
STARLINK-37598          
1 69357U 26123E   26181.19186955  .00441950  00000+0  20996-2 0  9996
2 69357  53.1563 176.5897 0003966 205.9333 154.1492 15.81184312  4090
STARLINK-37602          
1 69358U 26123F   26182.25935807  .00176896  00000+0  11301-2 0  9997
2 69358  53.1593 171.8942 0000977  92.2710 267.8422 15.75320594  4258
